NORAD_CAT_ID,OBJECT_NAME,OBJECT_TYPE,EPOCH,MEAN_MOTION,ECCENTRICITY,INCLINATION,RA_OF_ASC_NODE,ARG_OF_PERICENTER,MEAN_ANOMALY,BSTAR,MEAN_MOTION_DOT,MEAN_MOTION_DDOT,TLE_LINE0,TLE_LINE1,TLE_LINE2,SEMIMAJOR_AXIS,PERIOD,APOGEE,PERIGEE,DECAYED
49166.0,STARLINK-3089,PAYLOAD,2023-05-23 11:34:30,14.98326305,0.0003334,69.9989,329.2841,272.526,87.5518,0.000152,1.721e-05,0.0,0 STARLINK-3089,1 49166U 21082AN  23143.48229437  .00001721  00000-0  15200-3 0  9993,2 49166  69.9989 329.2841 0003334 272.5260  87.5518 14.98326305 94709,6950.204,96.107,574.387,569.752,0.0
49166.0,STARLINK-3089,PAYLOAD,2023-05-23 21:11:18,14.98331542,0.0003352,69.999,328.2741,272.0166,88.0609,0.0002035,2.336e-05,0.0,0 STARLINK-3089,1 49166U 21082AN  23143.88285140  .00002336  00000-0  20350-3 0  9995,2 49166  69.9990 328.2741 0003352 272.0166  88.0609 14.98331542 94761,6950.188,96.107,574.383,569.723,0.0
49166.0,STARLINK-3089,PAYLOAD,2023-05-24 16:24:55,14.98333306,0.0003345,69.999,326.254,270.7572,89.3204,3.3013e-05,3.01e-06,0.0,0 STARLINK-3089,1 49166U 21082AN  23144.68397318  .00000301  00000-0  33013-4 0  9996,2 49166  69.9990 326.2540 0003345 270.7572  89.3204 14.98333306 94882,6950.183,96.107,574.373,569.723,0.0
49166.0,STARLINK-3089,PAYLOAD,2023-05-25 18:03:04,14.9833234,0.0003311,69.9992,323.5611,269.7661,90.3119,2.7289e-05,2.33e-06,0.0,0 STARLINK-3089,1 49166U 21082AN  23145.75213096  .00000233  00000-0  27289-4 0  9997,2 49166  69.9992 323.5611 0003311 269.7661  90.3119 14.98332340 95046,6950.186,96.107,574.352,569.749,0.0
49166.0,STARLINK-3089,PAYLOAD,2023-05-25 21:15:20,14.98334408,0.0003303,69.9993,323.2244,269.803,90.2751,4.7175e-05,4.7e-06,0.0,0 STARLINK-3089,1 49166U 21082AN  23145.88564862  .00000470  00000-0  47175-4 0  9990,2 49166  69.9993 323.2244 0003303 269.8030  90.2751 14.98334408 95068,6950.179,96.107,574.34,569.749,0.0
49166.0,STARLINK-3089,PAYLOAD,2023-05-26 13:16:41,14.98329023,0.0003148,69.9998,321.5417,268.3013,91.7786,-2.3888e-06,-1.22e-06,0.0,0 STARLINK-3089,1 49166U 21082AN  23146.55325288 -.00000122  00000-0 -23888-5 0  9994,2 49166  69.9998 321.5417 0003148 268.3013  91.7786 14.98329023 95160,6950.196,96.107,574.249,569.873,0.0
49166.0,STARLINK-3089,PAYLOAD,2023-05-26 18:05:05,14.98328017,0.0003133,70.0,321.0368,268.2517,91.8283,3.8853e-06,-4.7e-07,0.0,0 STARLINK-3089,1 49166U 21082AN  23146.75353338 -.00000047  00000-0  38853-5 0  9996,2 49166  70.0000 321.0368 0003133 268.2517  91.8283 14.98328017 95197,6950.199,96.107,574.242,569.887,0.0
49166.0,STARLINK-3089,PAYLOAD,2023-05-26 21:17:21,14.98328506,0.0003127,70.0,320.7002,268.2487,91.8314,8.0906e-06,4e-08,0.0,0 STARLINK-3089,1 49166U 21082AN  23146.88705297  .00000004  00000-0  80906-5 0  9993,2 49166  70.0000 320.7002 0003127 268.2487  91.8314 14.98328506 95218,6950.198,96.107,574.236,569.889,0.0
49166.0,STARLINK-3089,PAYLOAD,2023-05-27 19:43:13,14.98332737,0.0003265,69.9996,318.3424,268.2137,91.8648,4.4585e-05,4.39e-06,0.0,0 STARLINK-3089,1 49166U 21082AN  23147.82168874  .00000439  00000-0  44585-4 0  9996,2 49166  69.9996 318.3424 0003265 268.2137  91.8648 14.98332737 95351,6950.184,96.107,574.319,569.78,0.0
49166.0,STARLINK-3089,PAYLOAD,2023-05-27 21:19:21,14.98333242,0.0003259,69.9996,318.1741,268.2251,91.8535,4.9825e-05,5.02e-06,0.0,0 STARLINK-3089,1 49166U 21082AN  23147.88844820  .00000502  00000-0  49825-4 0  9997,2 49166  69.9996 318.1741 0003259 268.2251  91.8535 14.98333242 95369,6950.183,96.107,574.313,569.783,0.0
49166.0,STARLINK-3089,PAYLOAD,2023-05-28 19:45:14,14.98336991,0.0003223,69.9998,315.8191,264.8825,95.1966,0.00013529,1.522e-05,0.0,0 STARLINK-3089,1 49166U 21082AN  23148.82308247  .00001522  00000-0  13529-3 0  9994,2 49166  69.9998 315.8191 0003223 264.8825  95.1966 14.98336991 95509,6950.171,96.107,574.276,569.796,0.0
49166.0,STARLINK-3089,PAYLOAD,2023-05-28 21:21:22,14.98337561,0.0003252,69.9997,315.6506,265.9868,94.0919,0.00013547,1.524e-05,0.0,0 STARLINK-3089,1 49166U 21082AN  23148.88984199  .00001524  00000-0  13547-3 0  9998,2 49166  69.9997 315.6506 0003252 265.9868  94.0919 14.98337561 95518,6950.17,96.107,574.295,569.774,0.0
49166.0,STARLINK-3089,PAYLOAD,2023-05-29 03:45:55,14.98323421,0.0002759,70.0007,314.9762,268.6922,91.3921,0.00018549,2.121e-05,0.0,0 STARLINK-3089,1 49166U 21082AN  23149.15689114  .00002121  00000-0  18549-3 0  9999,2 49166  70.0007 314.9762 0002759 268.6922  91.3921 14.98323421 95558,6950.213,96.107,573.996,570.161,0.0
49166.0,STARLINK-3089,PAYLOAD,2023-05-29 14:58:51,14.98330483,0.0003194,70.0001,313.798,266.8012,93.2782,1.7058e-05,1.11e-06,0.0,0 STARLINK-3089,1 49166U 21082AN  23149.62420778  .00000111  00000-0  17058-4 0  9992,2 49166  70.0001 313.7980 0003194 266.8012  93.2782 14.98330483 95625,6950.191,96.107,574.276,569.837,0.0
49166.0,STARLINK-3089,PAYLOAD,2023-05-29 21:23:23,14.98331008,0.0003206,70.0,313.1251,266.6511,93.4281,5.6218e-06,-2.6e-07,0.0,0 STARLINK-3089,1 49166U 21082AN  23149.89124755 -.00000026  00000-0  56218-5 0  9995,2 49166  70.0000 313.1251 0003206 266.6511  93.4281 14.98331008 95669,6950.19,96.107,574.283,569.827,0.0
49166.0,STARLINK-3089,PAYLOAD,2023-05-30 03:47:56,14.98330161,0.0003189,70.0002,312.4516,268.2548,91.8246,-1.5614e-05,-2.79e-06,0.0,0 STARLINK-3089,1 49166U 21082AN  23150.15828854 -.00000279  00000-0 -15614-4 0  9992,2 49166  70.0002 312.4516 0003189 268.2548  91.8246 14.98330161 95702,6950.192,96.107,574.274,569.841,0.0
49166.0,STARLINK-3089,PAYLOAD,2023-05-30 11:48:36,14.98332327,0.0003077,69.9999,311.6098,265.0558,95.025,-6.1162e-06,-1.66e-06,0.0,0 STARLINK-3089,1 49166U 21082AN  23150.49208651 -.00000166  00000-0 -61162-5 0  9991,2 49166  69.9999 311.6098 0003077 265.0558  95.0250 14.98332327 95754,6950.186,96.107,574.189,569.912,0.0
49166.0,STARLINK-3089,PAYLOAD,2023-05-30 19:49:16,14.98332813,0.0003208,69.9998,310.768,268.9719,91.1072,1.5003e-06,-7.5e-07,0.0,0 STARLINK-3089,1 49166U 21082AN  23150.82588563 -.00000075  00000-0  15003-5 0  9992,2 49166  69.9998 310.7680 0003208 268.9719  91.1072 14.98332813 95802,6950.184,96.107,574.279,569.82,0.0
49166.0,STARLINK-3089,PAYLOAD,2023-05-31 03:49:56,14.98339792,0.0003274,69.9999,309.9263,266.4615,93.6169,-0.00012342,-1.566e-05,0.0,0 STARLINK-3089,1 49166U 21082AN  23151.15968302 -.00001566  00000-0 -12342-3 0  9990,2 49166  69.9999 309.9263 0003274 266.4615  93.6169 14.98339792 95853,6950.163,96.106,574.303,569.752,0.0
49166.0,STARLINK-3089,PAYLOAD,2023-05-31 10:14:29,14.98328773,0.0003245,69.9999,309.2532,269.6036,90.4751,5.122e-05,5.18e-06,0.0,0 STARLINK-3089,1 49166U 21082AN  23151.42672654  .00000518  00000-0  51220-4 0  9995,2 49166  69.9999 309.2532 0003245 269.6036  90.4751 14.98328773 95898,6950.197,96.107,574.317,569.806,0.0
49166.0,STARLINK-3089,PAYLOAD,2023-05-31 13:26:45,14.9832827,0.0003246,69.9999,308.9165,269.5962,90.4825,4.3394e-05,4.25e-06,0.0,0 STARLINK-3089,1 49166U 21082AN  23151.56024721  .00000425  00000-0  43394-4 0  9996,2 49166  69.9999 308.9165 0003246 269.5962  90.4825 14.98328270 95911,6950.198,96.107,574.319,569.807,0.0
49166.0,STARLINK-3089,PAYLOAD,2023-05-31 19:51:17,14.98331356,0.0003218,69.9998,308.2431,269.9104,90.1686,7.121e-05,7.57e-06,0.0,0 STARLINK-3089,1 49166U 21082AN  23151.82728468  .00000757  00000-0  71210-4 0  9990,2 49166  69.9998 308.2431 0003218 269.9104  90.1686 14.98331356 95955,6950.189,96.107,574.29,569.817,0.0
49166.0,STARLINK-3089,PAYLOAD,2023-06-01 10:16:30,14.98329609,0.0003192,69.9998,306.7284,270.0126,90.0667,3.0743e-05,2.74e-06,0.0,0 STARLINK-3089,1 49166U 21082AN  23152.42812736  .00000274  00000-0  30743-4 0  9999,2 49166  69.9998 306.7284 0003192 270.0126  90.0667 14.98329609 96049,6950.194,96.107,574.278,569.841,0.0
49166.0,STARLINK-3089,PAYLOAD,2023-06-01 13:28:46,14.98329703,0.0003205,69.9998,306.3917,269.9021,90.1771,3.3001e-05,3.01e-06,0.0,0 STARLINK-3089,1 49166U 21082AN  23152.56164732  .00000301  00000-0  33001-4 0  9991,2 49166  69.9998 306.3917 0003205 269.9021  90.1771 14.98329703 96068,6950.194,96.107,574.286,569.831,0.0
49166.0,STARLINK-3089,PAYLOAD,2023-06-02 13:30:47,14.98328201,0.0003215,69.9995,303.8661,268.6298,91.4492,3.0786e-05,2.74e-06,0.0,0 STARLINK-3089,1 49166U 21082AN  23153.56304834  .00000274  00000-0  30786-4 0  9997,2 49166  69.9995 303.8661 0003215 268.6298  91.4492 14.98328201 96219,6950.198,96.107,574.298,569.829,0.0
49166.0,STARLINK-3089,PAYLOAD,2023-06-02 18:19:11,14.98329948,0.0003238,69.9996,303.3615,269.0574,91.0214,2.6048e-05,2.18e-06,0.0,0 STARLINK-3089,1 49166U 21082AN  23153.76332748  .00000218  00000-0  26048-4 0  9998,2 49166  69.9996 303.3615 0003238 269.0574  91.0214 14.98329948 96241,6950.193,96.107,574.309,569.808,0.0
49166.0,STARLINK-3089,PAYLOAD,2023-06-03 13:32:48,14.98329868,0.0003345,69.9995,301.3418,268.8488,91.2288,6.4933e-05,6.82e-06,0.0,0 STARLINK-3089,1 49166U 21082AN  23154.56444648  .00000682  00000-0  64933-4 0  9990,2 49166  69.9995 301.3418 0003345 268.8488  91.2288 14.98329868 96366,6950.193,96.107,574.383,569.733,0.0
49166.0,STARLINK-3089,PAYLOAD,2023-06-03 18:21:12,14.98334655,0.0003316,69.9996,300.837,268.6195,91.4584,6.6812e-05,7.04e-06,0.0,0 STARLINK-3089,1 49166U 21082AN  23154.76472312  .00000704  00000-0  66812-4 0  9994,2 49166  69.9996 300.8370 0003316 268.6195  91.4584 14.98334655 96393,6950.178,96.107,574.348,569.739,0.0
49166.0,STARLINK-3089,PAYLOAD,2023-06-03 19:57:20,14.98335304,0.0003306,69.9996,300.6686,268.6564,91.4217,7.2498e-05,7.72e-06,0.0,0 STARLINK-3089,1 49166U 21082AN  23154.83148245  .00000772  00000-0  72498-4 0  9999,2 49166  69.9996 300.6686 0003306 268.6564  91.4217 14.98335304 96407,6950.176,96.107,574.339,569.744,0.0
49166.0,STARLINK-3089,PAYLOAD,2023-06-04 10:22:33,14.98327908,0.000322,69.9999,299.1538,268.6239,91.4551,3.2631e-05,2.96e-06,0.0,0 STARLINK-3089,1 49166U 21082AN  23155.43232807  .00000296  00000-0  32631-4 0  9990,2 49166  69.9999 299.1538 0003220 268.6239  91.4551 14.98327908 96493,6950.199,96.107,574.302,569.826,0.0
